CCSDS_OEM_VERS = 1.0
CREATION_DATE  = 2017-05-11T11:18:47
ORIGINATOR     = GMAT USER

META_START
OBJECT_NAME          = MOPSSat_alt_35785_km_RAAN_90_112
OBJECT_ID            = SatId
CENTER_NAME          = Earth
REF_FRAME            = EME2000
TIME_SYSTEM          = UTC
START_TIME           = 2017-01-01T00:00:00.000
USEABLE_START_TIME   = 2017-01-01T00:00:00.000
USEABLE_STOP_TIME    = 2017-01-02T00:00:00.000
STOP_TIME            = 2017-01-02T00:00:00.000
INTERPOLATION        = Lagrange
INTERPOLATION_DEGREE = 7 
META_STOP


                                                                                   

2017-01-01T06:06:40.000  -4.023733678197582e+04  -1.797657564490706e+04   7.074975979313365e+01   6.526063985706425e-01  -2.865174147861805e+00  -1.111303408380218e-03
2017-01-01T06:06:50.000  -4.023080135028348e+04  -1.800522319862820e+04   7.073863032145977e+01   6.544797674483704e-01  -2.864336428492884e+00  -1.114590630023414e-03
2017-01-01T06:07:00.000  -4.022424719000974e+04  -1.803386237040986e+04   7.072746798634820e+01   6.563521016438484e-01  -2.863497702464652e+00  -1.117876073420224e-03
2017-01-01T06:07:10.000  -4.021767431150412e+04  -1.806249315017589e+04   7.071627280558602e+01   6.582234011153755e-01  -2.862657970941238e+00  -1.121159738491227e-03
2017-01-01T06:07:20.000  -4.021108272518518e+04  -1.809111552757235e+04   7.070504479707802e+01   6.600936658032734e-01  -2.861817235094269e+00  -1.124441625125440e-03
2017-01-01T06:07:30.000  -4.020447244145294e+04  -1.811972949233728e+04   7.069378397869758e+01   6.619628956539871e-01  -2.860975496091889e+00  -1.127721733222618e-03
2017-01-01T06:07:40.000  -4.019784347072306e+04  -1.814833503415484e+04   7.068249036834467e+01   6.638310906105702e-01  -2.860132755103058e+00  -1.131000062676548e-03
2017-01-01T06:07:50.000  -4.019119582327735e+04  -1.817693214330093e+04   7.067116398369149e+01   6.656982506548486e-01  -2.859289013278558e+00  -1.134276613449049e-03
2017-01-01T06:08:00.000  -4.018452950941307e+04  -1.820552080999752e+04   7.065980484243640e+01   6.675643757652416e-01  -2.858444271769978e+00  -1.137551385495947e-03
2017-01-01T06:08:10.000  -4.017784453940946e+04  -1.823410102455874e+04   7.064841296224743e+01   6.694294659263144e-01  -2.857598531725449e+00  -1.140824378783841e-03
2017-01-01T06:08:20.000  -4.017114092361179e+04  -1.826267277701952e+04   7.063698836090484e+01   6.712935211044787e-01  -2.856751794300457e+00  -1.144095593247463e-03
2017-01-01T06:08:30.000  -4.016441867236968e+04  -1.829123605741170e+04   7.062553105619662e+01   6.731565412660684e-01  -2.855904060649852e+00  -1.147365028821395e-03
2017-01-01T06:08:40.000  -4.015767779603610e+04  -1.831979085576341e+04   7.061404106591637e+01   6.750185263772829e-01  -2.855055331927791e+00  -1.150632685439970e-03
2017-01-01T06:08:50.000  -4.015091830503455e+04  -1.834833716182573e+04   7.060251840797828e+01   6.768794763864155e-01  -2.854205609296035e+00  -1.153898563006093e-03
2017-01-01T06:09:00.000  -4.014414020976958e+04  -1.837687496544136e+04   7.059096310026406e+01   6.787393912478391e-01  -2.853354893912832e+00  -1.157162661433323e-03
2017-01-01T06:09:10.000  -4.013734352066223e+04  -1.840540425639652e+04   7.057937516068385e+01   6.805982709123564e-01  -2.852503186937360e+00  -1.160424980628946e-03
2017-01-01T06:09:20.000  -4.013052824799439e+04  -1.843392502507544e+04   7.056775460691038e+01   6.824561153698511e-01  -2.851650489510191e+00  -1.163685520568812e-03
2017-01-01T06:09:30.000  -4.012369440206463e+04  -1.846243726180409e+04   7.055610145664511e+01   6.843129246065159e-01  -2.850796802772872e+00  -1.166944281222285e-03
2017-01-01T06:09:40.000  -4.011684199314830e+04  -1.849094095701966e+04   7.054441572754992e+01   6.861686986159009e-01  -2.849942127862879e+00  -1.170201262571624e-03
2017-01-01T06:09:50.000  -4.010997103160472e+04  -1.851943610081445e+04   7.053269743742985e+01   6.880234373691620e-01  -2.849086465927152e+00  -1.173456464559793e-03
2017-01-01T06:10:00.000  -4.010308152778900e+04  -1.854792268331237e+04   7.052094660408288e+01   6.898771408396284e-01  -2.848229818110949e+00  -1.176709887133549e-03
2017-01-01T06:10:10.000  -4.009617349207160e+04  -1.857640069458488e+04   7.050916324533326e+01   6.917298089973084e-01  -2.847372185560325e+00  -1.179961530233818e-03
2017-01-01T06:10:20.000  -4.008924693483423e+04  -1.860487012467437e+04   7.049734737902452e+01   6.935814418104507e-01  -2.846513569421520e+00  -1.183211393798408e-03
2017-01-01T06:10:30.000  -4.008230186646180e+04  -1.863333096362201e+04   7.048549902300573e+01   6.954320392473201e-01  -2.845653970840056e+00  -1.186459477765153e-03
2017-01-01T06:10:40.000  -4.007533829734012e+04  -1.866178320147803e+04   7.047361819512757e+01   6.972816012768750e-01  -2.844793390960423e+00  -1.189705782073085e-03
2017-01-01T06:10:50.000  -4.006835623783152e+04  -1.869022682840377e+04   7.046170491320075e+01   6.991301278754098e-01  -2.843931830923041e+00  -1.192950306674111e-03
2017-01-01T06:11:00.000  -4.006135569829067e+04  -1.871866183460351e+04   7.044975919502312e+01   7.009776190221026e-01  -2.843069291866271e+00  -1.196193051525186e-03
2017-01-01T06:11:10.000  -4.005433668906490e+04  -1.874708821032445e+04   7.043778105837974e+01   7.028240746990224e-01  -2.842205774926423e+00  -1.199434016588330e-03
2017-01-01T06:11:20.000  -4.004729922047647e+04  -1.877550594592424e+04   7.042577052101343e+01   7.046694948954874e-01  -2.841341281235660e+00  -1.202673201838266e-03
2017-01-01T06:11:30.000  -4.004024330284849e+04  -1.880391503176948e+04   7.041372760066811e+01   7.065138796014908e-01  -2.840475811925115e+00  -1.205910607250893e-03
2017-01-01T06:11:40.000  -4.003316894650735e+04  -1.883231545822559e+04   7.040165231509361e+01   7.083572288070414e-01  -2.839609368125211e+00  -1.209146232802126e-03
2017-01-01T06:11:50.000  -4.002607616178882e+04  -1.886070721562792e+04   7.038954468205560e+01   7.101995425002608e-01  -2.838741950966468e+00  -1.212380078464563e-03
2017-01-01T06:12:00.000  -4.001896495904489e+04  -1.888909029425973e+04   7.037740471934775e+01   7.120408206659863e-01  -2.837873561580259e+00  -1.215612144205027e-03
2017-01-01T06:12:10.000  -4.001183534862244e+04  -1.891746468443540e+04   7.036523244475491e+01   7.138810632911516e-01  -2.837004201096240e+00  -1.218842429994009e-03
2017-01-01T06:12:20.000  -4.000468734095892e+04  -1.894583037612732e+04   7.035302787621671e+01   7.157202703406396e-01  -2.836133870653890e+00  -1.222070935763274e-03
2017-01-01T06:12:30.000  -3.999752094646671e+04  -1.897418735941824e+04   7.034079103163016e+01   7.175584417865631e-01  -2.835262571388543e+00  -1.225297661457264e-03
2017-01-01T06:12:40.000  -3.999033617557592e+04  -1.900253562433285e+04   7.032852192892250e+01   7.193955775973621e-01  -2.834390304436574e+00  -1.228522607013963e-03
2017-01-01T06:12:50.000  -3.998313303856936e+04  -1.903087516149003e+04   7.031622058576950e+01   7.212316777800700e-01  -2.833517070915343e+00  -1.231745772439099e-03
2017-01-01T06:13:00.000  -3.997591154574692e+04  -1.905920596145221e+04   7.030388701987627e+01   7.230667423381417e-01  -2.832642871943191e+00  -1.234967157732101e-03
2017-01-01T06:13:10.000  -3.996867170738870e+04  -1.908752801487296e+04   7.029152124891421e+01   7.249007712810235e-01  -2.831767708634930e+00  -1.238186762902910e-03
2017-01-01T06:13:20.000  -3.996141353384629e+04  -1.911584131212889e+04   7.027912329067655e+01   7.267337646002565e-01  -2.830891582113038e+00  -1.241404587930020e-03
2017-01-01T06:13:30.000  -3.995413703547550e+04  -1.914414584359334e+04   7.026669316296422e+01   7.285657222872557e-01  -2.830014493499394e+00  -1.244620632791693e-03
2017-01-01T06:13:40.000  -3.994684222263568e+04  -1.917244159963574e+04   7.025423088358396e+01   7.303966443332506e-01  -2.829136443915209e+00  -1.247834897465857e-03
2017-01-01T06:13:50.000  -3.993952910576203e+04  -1.920072857035079e+04   7.024173647047229e+01   7.322265307118151e-01  -2.828257434489610e+00  -1.251047381899427e-03
2017-01-01T06:14:00.000  -3.993219769526890e+04  -1.922900674592375e+04   7.022920994153031e+01   7.340553814024490e-01  -2.827377466348142e+00  -1.254258086049713e-03
2017-01-01T06:14:10.000  -3.992484800158763e+04  -1.925727611648640e+04   7.021665131468802e+01   7.358831963812661e-01  -2.826496540617279e+00  -1.257467009868071e-03
2017-01-01T06:14:20.000  -3.991748003500074e+04  -1.928553667275499e+04   7.020406060762130e+01   7.377099756622485e-01  -2.825614658404554e+00  -1.260674153372324e-03
2017-01-01T06:14:30.000  -3.991009380580748e+04  -1.931378840539215e+04   7.019143783803474e+01   7.395357192559783e-01  -2.824731820818422e+00  -1.263879516574316e-03
2017-01-01T06:14:40.000  -3.990268932428681e+04  -1.934203130515132e+04   7.017878302359826e+01   7.413604271789856e-01  -2.823848028963786e+00  -1.267083099496324e-03
2017-01-01T06:14:50.000  -3.989526660079068e+04  -1.937026536250973e+04   7.016609618210651e+01   7.431840994299697e-01  -2.822963283953317e+00  -1.270284902129304e-03
2017-01-01T06:15:00.000  -3.988782564567549e+04  -1.939849056794121e+04   7.015337733136185e+01   7.450067360074897e-01  -2.822077586899082e+00  -1.273484924463958e-03
2017-01-01T06:15:10.000  -3.988036646930092e+04  -1.942670691191567e+04   7.014062648917231e+01   7.468283369099052e-01  -2.821190938912501e+00  -1.276683166490623e-03
2017-01-01T06:15:20.000  -3.987288908210429e+04  -1.945491438462899e+04   7.012784367347878e+01   7.486489021179961e-01  -2.820303341112997e+00  -1.279879628168766e-03
2017-01-01T06:15:30.000  -3.986539349450148e+04  -1.948311297636732e+04   7.011502890218553e+01   7.504684316184214e-01  -2.819414794616391e+00  -1.283074309468164e-03
2017-01-01T06:15:40.000  -3.985787971692638e+04  -1.951130267736062e+04   7.010218219322765e+01   7.522869253942839e-01  -2.818525300539547e+00  -1.286267210352341e-03
